[{"OBJECT_NAME":"SURCAL 159","OBJECT_ID":"1967-053F","EPOCH":"2026-03-09T19:37:22.733472","MEAN_MOTION":13.99575786,"ECCENTRICITY":0.00094656,"INCLINATION":69.9733,"RA_OF_ASC_NODE":214.7987,"ARG_OF_PERICENTER":251.1876,"MEAN_ANOMALY":108.8205,"EPHEMERIS_TYPE":0,"CLASSIFICATION_TYPE":"U","NORAD_CAT_ID":2872,"ELEMENT_SET_NO":999,"REV_AT_EPOCH":99630,"BSTAR":0.00015093287,"MEAN_MOTION_DOT":1.67e-6,"MEAN_MOTION_DDOT":0},{"OBJECT_NAME":"COSMOS 1304","OBJECT_ID":"1981-087A","EPOCH":"2026-03-09T15:05:14.306784","MEAN_MOTION":13.87841527,"ECCENTRICITY":0.0046672,"INCLINATION":82.9336,"RA_OF_ASC_NODE":119.6454,"ARG_OF_PERICENTER":145.4863,"MEAN_ANOMALY":214.9346,"EPHEMERIS_TYPE":0,"CLASSIFICATION_TYPE":"U","NORAD_CAT_ID":12803,"ELEMENT_SET_NO":999,"REV_AT_EPOCH":62910,"BSTAR":4.7421e-5,"MEAN_MOTION_DOT":7.3e-7,"MEAN_MOTION_DDOT":0}]
